OBJECT_NAME,OBJECT_ID,EPOCH,MEAN_MOTION,ECCENTRICITY,INCLINATION,RA_OF_ASC_NODE,ARG_OF_PERICENTER,MEAN_ANOMALY,EPHEMERIS_TYPE,CLASSIFICATION_TYPE,NORAD_CAT_ID,ELEMENT_SET_NO,REV_AT_EPOCH,BSTAR,MEAN_MOTION_DOT,MEAN_MOTION_DDOT
STARLINK-4506,2022-101AD,2026-07-08T09:58:32.508192,15.08828008,.00014918,53.1593,241.9445,85.9428,274.1734,0,U,53554,999,21453,.15398735E-3,.2163E-4,0
STARLINK-4504,2022-101AE,2026-07-08T10:13:03.573984,15.08825084,.00017322,53.1588,241.8894,87.9803,272.1387,0,U,53555,999,21519,.12012641E-3,.1623E-4,0
STARLINK-4505,2022-101AF,2026-07-08T12:57:18.556704,15.08836527,.00010763,53.1581,241.3742,89.8501,270.2614,0,U,53556,999,21455,-.13582292E-4,-.504E-5,0
STARLINK-4502,2022-101AG,2026-07-08T10:02:27.696768,15.08825186,.00014783,53.1595,241.9232,84.2075,275.9085,0,U,53557,999,21518,.89671906E-4,.1139E-4,0
STARLINK-4494,2022-101AH,2026-07-08T13:00:35.625600,15.08825047,.00010416,53.1589,236.0875,70.1745,289.9358,0,U,53558,999,21528,.27941164E-4,.157E-5,0
STARLINK-4564,2022-101AK,2026-07-08T02:54:34.653024,15.08819147,.00011283,53.1586,233.4433,94.9601,265.1519,0,U,53560,999,21462,.58012983E-4,.635E-5,0
STARLINK-4563,2022-101AL,2026-07-08T09:41:15.983808,15.08823559,.00010737,53.1573,241.9879,93.9414,266.1700,0,U,53561,999,21453,.71323648E-4,.847E-5,0
STARLINK-4565,2022-101AM,2026-07-08T14:00:03.000384,15.32458042,.00011644,53.1735,229.2124,66.2685,315.8289,0,U,53562,999,570,.1454278E-1,.493547E-2,0
STARLINK-4561,2022-101AN,2026-07-08T14:00:03.000384,15.35314046,.00017242,53.1594,229.3995,95.2383,190.9710,0,U,53563,999,579,.24665877E-2,.86413E-3,0
STARLINK-4577,2022-101AP,2026-07-08T14:00:03.000384,15.32069039,.00011465,53.1590,229.5348,92.2759,124.8656,0,U,53564,999,580,.3837494E-1,.132185E-1,0
STARLINK-4575,2022-101AQ,2026-07-08T14:00:03.000384,15.35083741,.00016717,53.1587,229.4972,105.2198,129.1099,0,U,53565,999,555,.37315957E-2,.130735E-2,0
STARLINK-4576,2022-101AR,2026-07-08T14:00:03.000384,15.32146173,.00003318,53.1604,229.2652,16.3332,337.7353,0,U,53566,999,580,.39599339E-2,.126369E-2,0
STARLINK-4585,2022-101AS,2026-07-08T09:05:30.954336,15.08820108,.00012538,53.1590,232.2057,80.5274,279.5859,0,U,53567,999,21466,.59647447E-4,.661E-5,0
STARLINK-4583,2022-101AT,2026-07-08T14:00:03.000384,15.32374885,.00007517,53.1596,229.4282,103.3379,167.4128,0,U,53568,999,570,.38314378E-2,.123082E-2,0
STARLINK-4582,2022-101AU,2026-07-08T14:00:03.000384,15.31364752,.00012897,53.1584,229.5640,97.7619,102.8049,0,U,53569,999,575,.39573903E-1,.1334914E-1,0
STARLINK-4550,2022-101AV,2026-07-08T14:00:03.000384,15.33496981,.0001156,53.1605,229.0255,61.7963,56.0554,0,U,53570,999,554,.14520946E-2,.47608E-3,0
STARLINK-4584,2022-101AW,2026-07-08T14:00:03.000384,15.31248502,.00010803,53.1595,229.4663,105.2542,147.3785,0,U,53571,999,565,.35581084E-2,.110125E-2,0
STARLINK-4555,2022-101AX,2026-07-08T14:00:03.000384,15.31474947,.00012711,53.1684,229.2443,69.0106,296.4404,0,U,53572,999,580,.24774033E-1,.82719E-2,0
STARLINK-4559,2022-101AZ,2026-07-08T14:00:03.000384,15.33438027,.00009616,53.1698,229.1231,71.1083,355.2752,0,U,53574,999,569,.89743167E-2,.306055E-2,0
STARLINK-4551,2022-101BA,2026-07-08T14:00:03.000384,15.34078337,.00044362,53.1603,228.9915,65.3064,69.6047,0,U,53575,999,580,.29502842E-2,.9963E-3,0
STARLINK-4581,2022-101BB,2026-07-08T09:59:49.789536,15.08836213,.00012343,53.1584,231.7314,84.4023,275.7109,0,U,53576,999,21549,.33711395E-4,.249E-5,0
STARLINK-4553,2022-101BC,2026-07-08T14:00:03.000384,15.33431018,.00008074,53.1605,229.2379,35.4825,331.8737,0,U,53577,999,564,.38706323E-2,.128647E-2,0
STARLINK-4556,2022-101BD,2026-07-08T14:00:03.000384,15.30307494,.00013411,53.1679,229.2284,67.9621,305.8422,0,U,53578,999,574,.26928194E-1,.87106E-2,0
STARLINK-4580,2022-101BE,2026-07-08T14:00:03.000384,15.31998493,.00008519,53.1610,229.2661,42.1031,310.3122,0,U,53579,999,579,.39800867E-2,.126428E-2,0
CHUANGXIN 16A (CX-16A),2022-102A,2026-07-08T09:33:29.428128,15.05995102,.0004752,28.9938,187.1768,233.4784,126.5378,0,U,53586,999,21272,.80265E-4,.1357E-4,0
BEIJING-3B,2022-103A,2026-07-08T13:04:07.329792,14.87239276,.00243237,97.8007,266.5876,347.3168,12.7433,0,U,53587,999,21026,.90105779E-4,.76E-5,0
STARLINK-4691,2022-104A,2026-07-07T22:20:21.615072,15.08823564,.00013307,53.1612,64.3675,104.2694,255.8445,0,U,53588,999,21424,.13937351E-3,.193E-4,0
STARLINK-4673,2022-104B,2026-07-08T14:00:03.000384,15.29466815,.00004107,53.1603,59.3095,93.1914,226.3194,0,U,53589,999,580,.30589694E-2,.89285E-3,0
STARLINK-4689,2022-104C,2026-07-08T14:00:03.000384,15.69903254,.00012214,53.2202,37.9780,80.6452,46.8582,0,U,53590,999,594,-.37047079E-2,-.430359E-2,0
STARLINK-4674,2022-104D,2026-07-08T14:00:03.000384,15.18418907,.00021793,53.1608,60.8717,73.6415,163.6125,0,U,53591,999,579,.32509443E-2,.68043E-3,0
