STARLINK-4506           
1 53554U 22101AD  26189.41565403  .00002163  00000+0  15399-3 0  9993
2 53554  53.1593 241.9445 0001491  85.9428 274.1734 15.08828008214533
STARLINK-4504           
1 53555U 22101AE  26189.42573581  .00001623  00000+0  12013-3 0  9991
2 53555  53.1588 241.8894 0001732  87.9803 272.1387 15.08825084215198
STARLINK-4505           
1 53556U 22101AF  26189.53979811 -.00000504  00000+0 -13582-4 0  9992
2 53556  53.1581 241.3742 0001076  89.8501 270.2614 15.08836527214551
STARLINK-4502           
1 53557U 22101AG  26189.41837612  .00001139  00000+0  89672-4 0  9998
2 53557  53.1595 241.9232 0001478  84.2075 275.9085 15.08825186215181
STARLINK-4494           
1 53558U 22101AH  26189.54207900  .00000157  00000+0  27941-4 0  9994
2 53558  53.1589 236.0875 0001041  70.1745 289.9358 15.08825047215282
STARLINK-4564           
1 53560U 22101AK  26189.12123441  .00000635  00000+0  58013-4 0  9993
2 53560  53.1586 233.4433 0001128  94.9601 265.1519 15.08819147214620
STARLINK-4563           
1 53561U 22101AL  26189.40365722  .00000847  00000+0  71324-4 0  9990
2 53561  53.1573 241.9879 0001073  93.9414 266.1700 15.08823559214530
STARLINK-4565           
1 53562U 22101AM  26189.58336806  .00493547  00000+0  14543-1 0  9991
2 53562  53.1735 229.2124 0001164  66.2685 315.8289 15.32458042  5706
STARLINK-4561           
1 53563U 22101AN  26189.58336806  .00086413  00000+0  24666-2 0  9990
2 53563  53.1594 229.3995 0001724  95.2383 190.9710 15.35314046  5794
STARLINK-4577           
1 53564U 22101AP  26189.58336806  .01321850  00000+0  38375-1 0  9990
2 53564  53.1590 229.5348 0001146  92.2759 124.8656 15.32069039  5800
STARLINK-4575           
1 53565U 22101AQ  26189.58336806  .00130735  00000+0  37316-2 0  9995
2 53565  53.1587 229.4972 0001671 105.2198 129.1099 15.35083741  5554
STARLINK-4576           
1 53566U 22101AR  26189.58336806  .00126369  00000+0  39599-2 0  9999
2 53566  53.1604 229.2652 0000331  16.3332 337.7353 15.32146173  5806
STARLINK-4585           
1 53567U 22101AS  26189.37883049  .00000661  00000+0  59647-4 0  9997
2 53567  53.1590 232.2057 0001253  80.5274 279.5859 15.08820108214666
STARLINK-4583           
1 53568U 22101AT  26189.58336806  .00123082  00000+0  38314-2 0  9994
2 53568  53.1596 229.4282 0000751 103.3379 167.4128 15.32374885  5703
STARLINK-4582           
1 53569U 22101AU  26189.58336806  .01334914  00000+0  39574-1 0  9992
2 53569  53.1584 229.5640 0001289  97.7619 102.8049 15.31364752  5751
STARLINK-4550           
1 53570U 22101AV  26189.58336806  .00047608  00000+0  14521-2 0  9990
2 53570  53.1605 229.0255 0001156  61.7963  56.0554 15.33496981  5540
STARLINK-4584           
1 53571U 22101AW  26189.58336806  .00110125  00000+0  35581-2 0  9995
2 53571  53.1595 229.4663 0001080 105.2542 147.3785 15.31248502  5653
STARLINK-4555           
1 53572U 22101AX  26189.58336806  .00827190  00000+0  24774-1 0  9994
2 53572  53.1684 229.2443 0001271  69.0106 296.4404 15.31474947  5807
STARLINK-4559           
1 53574U 22101AZ  26189.58336806  .00306055  00000+0  89743-2 0  9996
2 53574  53.1698 229.1231 0000961  71.1083 355.2752 15.33438027  5699
STARLINK-4551           
1 53575U 22101BA  26189.58336806  .00099630  00000+0  29503-2 0  9993
2 53575  53.1603 228.9915 0004436  65.3064  69.6047 15.34078337  5808
STARLINK-4581           
1 53576U 22101BB  26189.41654849  .00000249  00000+0  33711-4 0  9992
2 53576  53.1584 231.7314 0001234  84.4023 275.7109 15.08836213215495
STARLINK-4553           
1 53577U 22101BC  26189.58336806  .00128647  00000+0  38706-2 0  9991
2 53577  53.1605 229.2379 0000807  35.4825 331.8737 15.33431018  5641
STARLINK-4556           
1 53578U 22101BD  26189.58336806  .00871060  00000+0  26928-1 0  9998
2 53578  53.1679 229.2284 0001341  67.9621 305.8422 15.30307494  5746
STARLINK-4580           
1 53579U 22101BE  26189.58336806  .00126428  00000+0  39801-2 0  9995
2 53579  53.1610 229.2661 0000851  42.1031 310.3122 15.31998493  5795
CHUANGXIN 16A (CX-16A)  
1 53586U 22102A   26189.39825727  .00001357  00000+0  80265-4 0  9993
2 53586  28.9938 187.1768 0004752 233.4784 126.5378 15.05995102212728
BEIJING-3B              
1 53587U 22103A   26189.54452928  .00000760  00000+0  90106-4 0  9993
2 53587  97.8007 266.5876 0024323 347.3168  12.7433 14.87239276210267
STARLINK-4691           
1 53588U 22104A   26188.93080573  .00001930  00000+0  13937-3 0  9996
2 53588  53.1612  64.3675 0001330 104.2694 255.8445 15.08823564214241
STARLINK-4673           
1 53589U 22104B   26189.58336806  .00089285  00000+0  30590-2 0  9994
2 53589  53.1603  59.3095 0000410  93.1914 226.3194 15.29466815  5800
STARLINK-4689           
1 53590U 22104C   26189.58336806 -.00430359  00000+0 -37047-2 0  9994
2 53590  53.2202  37.9780 0001221  80.6452  46.8582 15.69903254  5948
STARLINK-4674           
1 53591U 22104D   26189.58336806  .00068043  00000+0  32509-2 0  9998
2 53591  53.1608  60.8717 0002179  73.6415 163.6125 15.18418907  5791
